{
  "norad_id": 40129,
  "name": "GSAT0202 (GALILEO 6)",
  "history": [
    {
      "epoch": "2026-03-26T03:07:10.740288Z",
      "apogee_km": 26249.739094839693,
      "perigee_km": 16948.75079295194,
      "latitude_deg": 3.788301356657187e-06,
      "longitude_deg": 45.54516305142552,
      "height_km": 26233.62920932322,
      "semi_major_axis_km": 27977.381943895816,
      "eccentricity": 0.16622335,
      "inclination_deg": 48.9839,
      "raan_deg": 275.9195,
      "arg_perigee_deg": 176.8927,
      "mean_anomaly_deg": 184.2876,
      "mean_motion_rev_day": 1.85520606
    },
    {
      "epoch": "2026-03-28T19:47:50.804448Z",
      "apogee_km": 26250.914556788906,
      "perigee_km": 16947.559245172353,
      "latitude_deg": -4.5525505436896176e-05,
      "longitude_deg": 152.61313305122746,
      "height_km": 26234.481350174876,
      "semi_major_axis_km": 27977.373900980627,
      "eccentricity": 0.1662657,
      "inclination_deg": 48.9812,
      "raan_deg": 275.8093,
      "arg_perigee_deg": 176.9957,
      "mean_anomaly_deg": 184.1399,
      "mean_motion_rev_day": 1.85520686
    }
  ]
}